[{"OBJECT_NAME":"STARLINK-3227","OBJECT_ID":"2021-115AT","EPOCH":"2026-03-09T12:11:07.769184","MEAN_MOTION":15.08839343,"ECCENTRICITY":0.00017739,"INCLINATION":53.218,"RA_OF_ASC_NODE":139.9459,"ARG_OF_PERICENTER":79.5782,"MEAN_ANOMALY":280.541,"EPHEMERIS_TYPE":0,"CLASSIFICATION_TYPE":"U","NORAD_CAT_ID":49765,"ELEMENT_SET_NO":999,"REV_AT_EPOCH":23565,"BSTAR":-1.286614e-5,"MEAN_MOTION_DOT":-4.93e-6,"MEAN_MOTION_DDOT":0},{"OBJECT_NAME":"CZ-4B R\/B","OBJECT_ID":"2024-208C","EPOCH":"2026-03-09T16:49:23.143584","MEAN_MOTION":15.26980605,"ECCENTRICITY":0.01307988,"INCLINATION":97.9574,"RA_OF_ASC_NODE":113.1946,"ARG_OF_PERICENTER":150.913,"MEAN_ANOMALY":209.9477,"EPHEMERIS_TYPE":0,"CLASSIFICATION_TYPE":"U","NORAD_CAT_ID":61938,"ELEMENT_SET_NO":999,"REV_AT_EPOCH":7308,"BSTAR":0.00035146236,"MEAN_MOTION_DOT":0.000119,"MEAN_MOTION_DDOT":0}]
